NORAD_CAT_ID,OBJECT_NAME,OBJECT_TYPE,EPOCH,MEAN_MOTION,ECCENTRICITY,INCLINATION,RA_OF_ASC_NODE,ARG_OF_PERICENTER,MEAN_ANOMALY,BSTAR,MEAN_MOTION_DOT,MEAN_MOTION_DDOT,TLE_LINE0,TLE_LINE1,TLE_LINE2,SEMIMAJOR_AXIS,PERIOD,APOGEE,PERIGEE,DECAYED
53174.0,STARLINK-4205,PAYLOAD,2023-06-16 20:18:32,15.08856605,0.0001092,53.2183,329.1236,89.6172,270.4945,0.00020409,2.963e-05,0.0,0 STARLINK-4205,1 53174U 22083AU  23167.84621277  .00002963  00000-0  20409-3 0  9999,2 53174  53.2183 329.1236 0001092  89.6172 270.4945 15.08856605 50724,6917.83,95.437,540.45,538.939,0.0
53174.0,STARLINK-4205,PAYLOAD,2023-06-16 21:53:55,15.08860284,0.0001262,53.2189,328.8266,98.315,261.7985,0.00026885,3.996e-05,0.0,0 STARLINK-4205,1 53174U 22083AU  23167.91244935  .00003996  00000-0  26885-3 0  9990,2 53174  53.2189 328.8266 0001262  98.3150 261.7985 15.08860284 51378,6917.818,95.436,540.556,538.81,0.0
53174.0,STARLINK-4205,PAYLOAD,2023-06-17 10:37:02,15.08834374,0.0001518,53.2183,326.4484,92.4984,267.6182,-4.504e-05,-1.005e-05,0.0,0 STARLINK-4205,1 53174U 22083AU  23168.44238985 -.00001005  00000-0 -45040-4 0  9993,2 53174  53.2183 326.4484 0001518  92.4984 267.6182 15.08834374 51456,6917.898,95.438,540.813,538.712,0.0
53174.0,STARLINK-4205,PAYLOAD,2023-06-17 20:09:21,15.0883442,0.0001158,53.2177,324.6635,78.1962,281.916,-5.503e-05,-1.163e-05,0.0,0 STARLINK-4205,1 53174U 22083AU  23168.83983159 -.00001163  00000-0 -55030-4 0  9991,2 53174  53.2177 324.6635 0001158  78.1962 281.9160 15.08834420 50876,6917.897,95.438,540.564,538.961,0.0
53174.0,STARLINK-4205,PAYLOAD,2023-06-18 10:27:49,15.08842613,0.0001133,53.2179,321.9872,78.5864,281.5255,7.057e-05,8.36e-06,0.0,0 STARLINK-4205,1 53174U 22083AU  23169.43598863  .00000836  00000-0  70570-4 0  9992,2 53174  53.2179 321.9872 0001133  78.5864 281.5255 15.08842613 50963,6917.872,95.437,540.521,538.954,0.0
53174.0,STARLINK-4205,PAYLOAD,2023-06-18 16:49:21,15.08848281,0.0001166,53.2176,320.7976,74.6153,285.4968,0.00027621,4.112e-05,0.0,0 STARLINK-4205,1 53174U 22083AU  23169.70094680  .00004112  00000-0  27621-3 0  9999,2 53174  53.2176 320.7976 0001166  74.6153 285.4968 15.08848281 51643,6917.855,95.437,540.527,538.913,0.0
53174.0,STARLINK-4205,PAYLOAD,2023-06-18 20:00:07,15.08851979,0.0001167,53.2181,320.203,74.1113,286.0008,0.00033783,5.095e-05,0.0,0 STARLINK-4205,1 53174U 22083AU  23169.83342553  .00005095  00000-0  33783-3 0  9995,2 53174  53.2181 320.2030 0001167  74.1113 286.0008 15.08851979 51029,6917.844,95.437,540.516,538.901,0.0
53174.0,STARLINK-4205,PAYLOAD,2023-06-19 10:18:36,15.08840109,9.76e-05,53.2183,317.5273,65.3812,294.7281,0.00020904,3.041e-05,0.0,0 STARLINK-4205,1 53174U 22083AU  23170.42959194  .00003041  00000-0  20904-3 0  9997,2 53174  53.2183 317.5273 0000976  65.3812 294.7281 15.08840109 51756,6917.88,95.438,540.42,539.07,0.0
53174.0,STARLINK-4205,PAYLOAD,2023-06-19 16:40:09,15.08849483,0.0001014,53.2181,316.3376,67.4793,292.6306,0.00037491,5.685e-05,0.0,0 STARLINK-4205,1 53174U 22083AU  23170.69454881  .00005685  00000-0  37491-3 0  9994,2 53174  53.2181 316.3376 0001014  67.4793 292.6306 15.08849483 51153,6917.851,95.437,540.418,539.015,0.0
53174.0,STARLINK-4205,PAYLOAD,2023-06-20 10:09:23,15.08835838,0.0001076,53.2179,313.0683,68.6874,291.4233,-1.8593e-05,-5.84e-06,0.0,0 STARLINK-4205,1 53174U 22083AU  23171.42319314 -.00000584  00000-0 -18593-4 0  9995,2 53174  53.2179 313.0683 0001076  68.6874 291.4233 15.08835838 51904,6917.893,95.438,540.502,539.014,0.0
53174.0,STARLINK-4205,PAYLOAD,2023-06-20 19:41:42,15.08842733,0.000113,53.2187,311.285,71.026,289.0855,6.4381e-05,7.37e-06,0.0,0 STARLINK-4205,1 53174U 22083AU  23171.82063110  .00000737  00000-0  64381-4 0  9993,2 53174  53.2187 311.2850 0001130  71.0260 289.0855 15.08842733 51328,6917.872,95.437,540.519,538.955,0.0
53174.0,STARLINK-4205,PAYLOAD,2023-06-21 13:10:57,15.08837072,0.000114,53.2177,308.0119,87.9023,272.2099,3.5509e-05,2.77e-06,0.0,0 STARLINK-4205,1 53174U 22083AU  23172.54927466  .00000277  00000-0  35509-4 0  9995,2 53174  53.2177 308.0119 0001140  87.9023 272.2099 15.08837072 51439,6917.889,95.438,540.543,538.966,0.0
53174.0,STARLINK-4205,PAYLOAD,2023-06-21 17:57:06,15.08843392,0.0001004,53.2174,307.1203,80.8847,279.2259,0.00013066,1.792e-05,0.0,0 STARLINK-4205,1 53174U 22083AU  23172.74799255  .00001792  00000-0  13066-3 0  9996,2 53174  53.2174 307.1203 0001004  80.8847 279.2259 15.08843392 52107,6917.87,95.437,540.43,539.04,0.0
53174.0,STARLINK-4205,PAYLOAD,2023-06-22 09:50:58,15.0883476,9.86e-05,53.2174,304.1474,85.1253,274.9851,8.2148e-05,1.02e-05,0.0,0 STARLINK-4205,1 53174U 22083AU  23173.41039947  .00001020  00000-0  82148-4 0  9998,2 53174  53.2174 304.1474 0000986  85.1253 274.9851 15.08834760 52201,6917.896,95.438,540.444,539.079,0.0
53174.0,STARLINK-4205,PAYLOAD,2023-06-22 17:47:53,15.08848032,9.53e-05,53.2174,302.6597,81.2862,278.8238,0.00020587,2.991e-05,0.0,0 STARLINK-4205,1 53174U 22083AU  23173.74159358  .00002991  00000-0  20587-3 0  9999,2 53174  53.2174 302.6597 0000953  81.2862 278.8238 15.08848032 52251,6917.856,95.437,540.38,539.062,0.0
53174.0,STARLINK-4205,PAYLOAD,2023-06-23 08:06:22,15.08842855,0.0001054,53.2172,299.984,79.795,280.316,0.00019481,2.814e-05,0.0,0 STARLINK-4205,1 53174U 22083AU  23174.33775641  .00002814  00000-0  19481-3 0  9999,2 53174  53.2172 299.9840 0001054  79.7950 280.3160 15.08842855 52340,6917.872,95.437,540.466,539.008,0.0
53174.0,STARLINK-4205,PAYLOAD,2023-06-23 17:38:40,15.08854639,9.02e-05,53.2172,298.1992,81.4615,278.648,0.00034177,5.158e-05,0.0,0 STARLINK-4205,1 53174U 22083AU  23174.73519001  .00005158  00000-0  34177-3 0  9992,2 53174  53.2172 298.1992 0000902  81.4615 278.6480 15.08854639 52403,6917.836,95.437,540.325,539.077,0.0
53174.0,STARLINK-4205,PAYLOAD,2023-06-24 01:35:36,15.08843872,0.0001022,53.217,296.7132,77.6175,282.4931,0.00013765,1.904e-05,0.0,0 STARLINK-4205,1 53174U 22083AU  23175.06639484  .00001904  00000-0  13765-3 0  9992,2 53174  53.2170 296.7132 0001022  77.6175 282.4931 15.08843872 52459,6917.869,95.437,540.441,539.027,0.0
53174.0,STARLINK-4205,PAYLOAD,2023-06-24 07:57:09,15.08836832,0.0001319,53.2165,295.5234,83.8107,276.3035,-3.6449e-05,-8.68e-06,0.0,0 STARLINK-4205,1 53174U 22083AU  23175.33135885 -.00000868  00000-0 -36449-4 0  9993,2 53174  53.2165 295.5234 0001319  83.8107 276.3035 15.08836832 52495,6917.89,95.438,540.668,538.843,0.0
53174.0,STARLINK-4205,PAYLOAD,2023-06-25 14:09:29,15.08840148,0.0001236,53.2175,289.8734,95.0124,265.1009,0.00014968,2.095e-05,0.0,0 STARLINK-4205,1 53174U 22083AU  23176.58992188  .00002095  00000-0  14968-3 0  9991,2 53174  53.2175 289.8734 0001236  95.0124 265.1009 15.08840148 52682,6917.88,95.438,540.6,538.89,0.0
53174.0,STARLINK-4205,PAYLOAD,2023-06-26 07:38:44,15.08835043,0.0001204,53.2163,286.6039,83.274,276.8389,0.00016219,2.294e-05,0.0,0 STARLINK-4205,1 53174U 22083AU  23177.31856736  .00002294  00000-0  16219-3 0  9993,2 53174  53.2163 286.6039 0001204  83.2740 276.8389 15.08835043 52790,6917.896,95.438,540.593,538.928,0.0
53174.0,STARLINK-4205,PAYLOAD,2023-06-26 18:46:25,15.0884603,0.0001276,53.2173,284.5213,97.6958,262.4179,0.00027915,4.158e-05,0.0,0 STARLINK-4205,1 53174U 22083AU  23177.78224297  .00004158  00000-0  27915-3 0  9991,2 53174  53.2173 284.5213 0001276  97.6958 262.4179 15.08846030 52865,6917.862,95.437,540.61,538.844,0.0
53174.0,STARLINK-4205,PAYLOAD,2023-06-27 23:23:21,15.08847955,0.0001068,53.217,279.1704,93.6831,266.4283,0.00016448,2.331e-05,0.0,0 STARLINK-4205,1 53174U 22083AU  23178.97455912  .00002331  00000-0  16448-3 0  9993,2 53174  53.2170 279.1704 0001068  93.6831 266.4283 15.08847955 53040,6917.856,95.437,540.46,538.982,0.0
53174.0,STARLINK-4205,PAYLOAD,2023-06-28 10:31:04,15.08841092,0.0001631,53.2189,277.0926,115.542,244.5741,6.0354e-05,6.73e-06,0.0,0 STARLINK-4205,1 53174U 22083AU  23179.43824643  .00000673  00000-0  60354-4 0  9999,2 53174  53.2189 277.0926 0001631 115.5420 244.5741 15.08841092 53117,6917.877,95.437,540.87,538.614,0.0
53174.0,STARLINK-4205,PAYLOAD,2023-06-29 16:43:23,15.08848571,0.0001064,53.2178,271.4394,96.6703,263.4411,0.00020185,2.927e-05,0.0,0 STARLINK-4205,1 53174U 22083AU  23180.69679932  .00002927  00000-0  20185-3 0  9999,2 53174  53.2178 271.4394 0001064  96.6703 263.4411 15.08848571 53309,6917.854,95.437,540.455,538.983,0.0
53174.0,STARLINK-4205,PAYLOAD,2023-06-30 13:23:24,15.08846933,0.0001031,53.2171,267.5723,78.3023,281.8085,0.00021239,3.095e-05,0.0,0 STARLINK-4205,1 53174U 22083AU  23181.55792005  .00003095  00000-0  21239-3 0  9990,2 53174  53.2171 267.5723 0001031  78.3023 281.8085 15.08846933 53435,6917.859,95.437,540.437,539.011,0.0
53174.0,STARLINK-4205,PAYLOAD,2023-06-30 22:55:43,15.08841305,9.85e-05,53.217,265.7893,77.7942,282.316,8.2601e-05,1.027e-05,0.0,0 STARLINK-4205,1 53174U 22083AU  23181.95536036  .00001027  00000-0  82601-4 0  9998,2 53174  53.2170 265.7893 0000985  77.7942 282.3160 15.08841305 53496,6917.876,95.437,540.423,539.06,0.0
53174.0,STARLINK-4205,PAYLOAD,2023-07-01 13:14:11,15.08836918,9.79e-05,53.2166,263.1125,87.1652,272.9452,-2.4218e-05,-6.73e-06,0.0,0 STARLINK-4205,1 53174U 22083AU  23182.55152431 -.00000673  00000-0 -24218-4 0  9996,2 53174  53.2166 263.1125 0000979  87.1652 272.9452 15.08836918 53580,6917.89,95.438,540.432,539.078,0.0
53174.0,STARLINK-4205,PAYLOAD,2023-07-02 22:37:17,15.08845944,9.99e-05,53.2177,256.8669,90.5718,269.5389,2.9435e-05,1.81e-06,0.0,0 STARLINK-4205,1 53174U 22083AU  23183.94256310  .00000181  00000-0  29435-4 0  9999,2 53174  53.2177 256.8669 0000999  90.5718 269.5389 15.08845944 53790,6917.862,95.437,540.418,539.036,0.0
53174.0,STARLINK-4205,PAYLOAD,2023-07-04 11:11:09,15.08839693,9.78e-05,53.2163,250.0278,82.2382,277.8722,2.3553e-05,8.7e-07,0.0,0 STARLINK-4205,1 53174U 22083AU  23185.46608677  .00000087  00000-0  23553-4 0  9995,2 53174  53.2163 250.0278 0000978  82.2382 277.8722 15.08839693 54023,6917.881,95.438,540.423,539.07,0.0
